0 SL-12 R/B(2)
1 19076U 88034D   13279.53173810 -.00000180  00000-0  00000+0 0  8523
2 19076 014.6962 010.3867 0026449 068.7087 285.5676 01.00124509 92786
0 SL-12 R/B(2)
1 19076U 88034D   13281.60462510 -.00000194  00000-0  00000+0 0  8538
2 19076 014.6976 010.3648 0026305 068.8509 312.6183 01.00124489 92815
0 SL-12 R/B(2)
1 19076U 88034D   13285.71273554 -.00000222  00000-0  00000+0 0  8545
2 19076 014.7003 010.3209 0026032 068.7892 353.4869 01.00124520 92855
0 SL-12 R/B(2)
1 19076U 88034D   13287.80600152 -.00000233  00000-0  00000+0 0  8558
2 19076 014.7016 010.2984 0025959 068.6065 028.2074 01.00124423 92875
0 SL-12 R/B(2)
1 19076U 88034D   13290.42484161 -.00000245  00000-0  00000+0 0  8564
2 19076 014.7032 010.2702 0025918 068.2993 252.5025 01.00124201 92896
0 SL-12 R/B(2)
1 19076U 88034D   13290.53428432  .00000000  00000-0  10000-3 0  8579
2 19076 014.7021 010.2697 0026468 068.8618 291.4072 01.00119664 92899
0 SL-12 R/B(2)
1 19076U 88034D   13292.81025696 -.00000252  00000-0  00000+0 0  8572
2 19076 014.7047 010.2446 0025993 068.1129 032.5372 01.00123663 92926
